[{"id":"26407","name":"NAVSTAR 48 (USA 151)","tle1":"1 26407U 00040A   26176.27973259  .00000074  00000+0  00000+0 0  9998","tle2":"2 26407  54.8505 214.8407 0120931 302.5387  64.3497  2.00557831190114"},{"id":"27663","name":"NAVSTAR 51 (USA 166)","tle1":"1 27663U 03005A   26176.08070955  .00000073  00000+0  00000+0 0  9996","tle2":"2 27663  54.8812 214.6551 0148002  53.0935 306.1631  2.00560235171460"},{"id":"28190","name":"NAVSTAR 54 (USA 177)","tle1":"1 28190U 04009A   26175.31167499 -.00000071  00000+0  00000+0 0  9991","tle2":"2 28190  54.8236 275.3992 0116404 173.4104 143.5535  2.00554582163088"},{"id":"28474","name":"NAVSTAR 56 (USA 180)","tle1":"1 28474U 04045A   26175.77634832 -.00000107  00000+0  00000+0 0  9996","tle2":"2 28474  55.1314 324.5905 0169901 316.5959  40.8315  2.00556342158572"},{"id":"28874","name":"NAVSTAR 57 (USA 183)","tle1":"1 28874U 05038A   26176.29662784 -.00000059  00000+0  00000+0 0  9994","tle2":"2 28874  54.8713 272.8500 0127971 296.2313  40.8481  2.00565229151997"},{"id":"28899","name":"INMARSAT 4-F2","tle1":"1 28899U 05044A   26175.98301797 -.00000256  00000+0  00000+0 0  9996","tle2":"2 28899   5.1055  43.6925 0003240  39.9506 326.8574  1.00272215 75607"},{"id":"29486","name":"NAVSTAR 58 (USA 190)","tle1":"1 29486U 06042A   26175.47016282  .00000065  00000+0  00000+0 0  9991","tle2":"2 29486  54.7116 151.0498 0106722  54.5971 304.3172  2.00569473144535"},{"id":"29601","name":"NAVSTAR 59 (USA 192)","tle1":"1 29601U 06052A   26172.90572389  .00000037  00000+0  00000+0 0  9990","tle2":"2 29601  54.9339 213.8191 0085492  90.7942 270.2511  2.00558294143503"},{"id":"32260","name":"NAVSTAR 60 (USA 196)","tle1":"1 32260U 07047A   26176.20241538 -.00000078  00000+0  00000+0 0  9992","tle2":"2 32260  54.1009  79.7351 0167076  87.5534 274.3693  2.00554940136974"},{"id":"32275","name":"COSMOS 2433 [GLONASS-M]","tle1":"1 32275U 07052A   26174.95449183 -.00000082  00000+0  00000+0 0  9995","tle2":"2 32275  65.5727 315.7051 0002790 194.8015 165.1813  2.13104086145203"},{"id":"32276","name":"COSMOS 2432 [GLONASS-M]","tle1":"1 32276U 07052B   26175.96663789 -.00000084  00000+0  00000+0 0  9990","tle2":"2 32276  65.5880 315.7989 0007446 329.0779  31.2465  2.13103129145254"},{"id":"32384","name":"NAVSTAR 61 (USA 199)","tle1":"1 32384U 07062A   26175.02709910 -.00000070  00000+0  00000+0 0  9990","tle2":"2 32384  55.0261 273.8775 0035822 166.0586 192.8031  2.00560588135649"},{"id":"32393","name":"COSMOS 2434 [GLONASS-M]","tle1":"1 32393U 07065A   26175.24269938  .00000104  00000+0  00000+0 0  9995","tle2":"2 32393  64.3185 191.6780 0001218 329.6541 141.2402  2.13101274143927"},{"id":"32395","name":"COSMOS 2436 [GLONASS-M]","tle1":"1 32395U 07065C   26173.14632410  .00000084  00000+0  00000+0 0  9990","tle2":"2 32395  64.3269 191.8207 0017276 353.7327  81.1911  2.13100062143830"},{"id":"32711","name":"NAVSTAR 62 (USA 201)","tle1":"1 32711U 08012A   26176.11302065  .00000055  00000+0  00000+0 0  9993","tle2":"2 32711  54.4984 149.6081 0211409 247.9409 109.7809  2.00572680133912"},{"id":"35752","name":"NAVSTAR 64 (USA 206)","tle1":"1 35752U 09043A   26176.27903185 -.00000090  00000+0  00000+0 0  9993","tle2":"2 35752  56.2155  27.1339 0053797  83.5464  45.5161  2.00553990123522"},{"id":"36111","name":"COSMOS 2456 [GLONASS-M]","tle1":"1 36111U 09070A   26175.13840201 -.00000070  00000+0  00000+0 0  9994","tle2":"2 36111  65.0154  70.7346 0004336 335.5645 213.4976  2.13103579128575"},{"id":"36112","name":"COSMOS 2457 [GLONASS-M]","tle1":"1 36112U 09070B   26174.95633448 -.00000070  00000+0  00000+0 0  9997","tle2":"2 36112  65.0012  70.5847 0003066 122.1178  54.6156  2.13101046128575"},{"id":"36402","name":"COSMOS 2460 [GLONASS-M]","tle1":"1 36402U 10007C   26175.59892152 -.00000084  00000+0  00000+0 0  9996","tle2":"2 36402  65.4157 314.2152 0002044 120.3495 191.3100  2.13101547126881"},{"id":"36585","name":"NAVSTAR 65 (USA 213)","tle1":"1 36585U 10022A   26176.17923405  .00000082  00000+0  00000+0 0  9993","tle2":"2 36585  54.2698 208.2400 0126408  66.1256 109.8583  2.00562897117750"},{"id":"36828","name":"BEIDOU-2 IGSO-1","tle1":"1 36828U 10036A   26175.90431008 -.00000048  00000+0  00000+0 0  9994","tle2":"2 36828  54.3046 162.8893 0059116 225.3958 317.8899  1.00270002 58172"},{"id":"37210","name":"BEIDOU-2 G4","tle1":"1 37210U 10057A   26175.55852006 -.00000107  00000+0  00000+0 0  9995","tle2":"2 37210   3.6659  68.9129 0004895 194.6419  10.2041  1.00271193 57362"},{"id":"37256","name":"BEIDOU-2 IGSO-2","tle1":"1 37256U 10068A   26175.67652892 -.00000223  00000+0  00000+0 0  9990","tle2":"2 37256  47.5326 271.7373 0056042 213.3814 139.3528  1.00281062 56867"},{"id":"37384","name":"BEIDOU-2 IGSO-3","tle1":"1 37384U 11013A   26174.55036299 -.00000196  00000+0  00000+0 0  9995","tle2":"2 37384  62.4163  40.0898 0034966 184.1575 353.0787  1.00266402 55720"},{"id":"37605","name":"GSAT-8","tle1":"1 37605U 11022A   26176.17940738  .00000092  00000+0  00000+0 0  9997","tle2":"2 37605   2.1520  81.7360 0001691 187.7973 123.4401  1.00272388 53292"},{"id":"37763","name":"BEIDOU-2 IGSO-4","tle1":"1 37763U 11038A   26175.91018918  .00000035  00000+0  00000+0 0  9993","tle2":"2 37763  54.6027 165.6034 0159599 231.4937 297.3376  1.00283829 54722"},{"id":"37846","name":"GSAT0101 (GALILEO-PFM)","tle1":"1 37846U 11060A   26174.30083960 -.00000098  00000+0  00000+0 0  9991","tle2":"2 37846  56.9921 341.5952 0002928  54.5594 305.4650  1.70475800 91223"},{"id":"37847","name":"GSAT0102 (GALILEO-FM2)","tle1":"1 37847U 11060B   26174.76684402 -.00000098  00000+0  00000+0 0  9990","tle2":"2 37847  56.9927 341.5831 0002896  14.6651 316.9838  1.70476044 91238"},{"id":"37867","name":"COSMOS 2476 [GLONASS-M]","tle1":"1 37867U 11064A   26173.36699142 -.00000061  00000+0  00000+0 0  9998","tle2":"2 37867  65.2731  72.6963 0022606 238.5611 299.8582  2.13103651113877"},{"id":"37868","name":"COSMOS 2477 [GLONASS-M]","tle1":"1 37868U 11064B   26171.26952727 -.00000039  00000+0  00000+0 0  9992","tle2":"2 37868  65.2782  72.8466 0019648 240.0065 309.6331  2.13102843113826"},{"id":"37869","name":"COSMOS 2475 [GLONASS-M]","tle1":"1 37869U 11064C   26175.60201064 -.00000069  00000+0  00000+0 0  9999","tle2":"2 37869  65.2875  72.7218 0025370 252.8392 335.6275  2.13101777113929"}]